{
  "type": "FeatureCollection",
  "features": [
    {
      "type": "Feature",
      "properties": {
        "norad_id": 2807,
        "name": "OPS 7218 (TRANSIT 16)",
        "group": "nnss",
        "lat": 65.14453046925168,
        "lon": 172.81378397417265,
        "alt_km": 1050.8131993121033,
        "timestamp": "2025-12-27T17:24:57.673631+00:00",
        "meta_object_name": "OPS 7218 (TRANSIT 16)",
        "meta_object_id": "1967-048A",
        "meta_epoch": "2025-12-27T12:03:38.941056",
        "meta_mean_motion": 13.50725307,
        "meta_eccentricity": 0.0022106,
        "meta_inclination": 89.6735,
        "meta_ra_of_asc_node": 353.5264,
        "meta_arg_of_pericenter": 74.8289,
        "meta_mean_anomaly": 35.4501,
        "meta_ephemeris_type": 0,
        "meta_classification_type": "U",
        "meta_norad_cat_id": 2807,
        "meta_element_set_no": 999,
        "meta_rev_at_epoch": 88475,
        "meta_bstar": 0.00016898,
        "meta_mean_motion_dot": 1.19e-06,
        "meta_mean_motion_ddot": 0,
        "tle_line1": "1 02807U 67048A   25361.50253404  .00000119  00000+0  16898-3 0  9997",
        "tle_line2": "2 02807  89.6735 353.5264 0022106  74.8289  35.4501 13.50725307884757"
      },
      "geometry": {
        "type": "Point",
        "coordinates": [
          172.81378397417265,
          65.14453046925168
        ]
      }
    },
    {
      "type": "Feature",
      "properties": {
        "norad_id": 2965,
        "name": "OPS 4947 (TRANSIT 17)",
        "group": "nnss",
        "lat": -33.39398292907441,
        "lon": 22.796095583218943,
        "alt_km": 1091.1937963007067,
        "timestamp": "2025-12-27T17:24:57.673657+00:00",
        "meta_object_name": "OPS 4947 (TRANSIT 17)",
        "meta_object_id": "1967-092A",
        "meta_epoch": "2025-12-27T08:45:58.818240",
        "meta_mean_motion": 13.5345744,
        "meta_eccentricity": 0.0047306,
        "meta_inclination": 89.2485,
        "meta_ra_of_asc_node": 23.3193,
        "meta_arg_of_pericenter": 191.2504,
        "meta_mean_anomaly": 180.0802,
        "meta_ephemeris_type": 0,
        "meta_classification_type": "U",
        "meta_norad_cat_id": 2965,
        "meta_element_set_no": 999,
        "meta_rev_at_epoch": 87295,
        "meta_bstar": 0.000196,
        "meta_mean_motion_dot": 1.44e-06,
        "meta_mean_motion_ddot": 0,
        "tle_line1": "1 02965U 67092A   25361.36526410  .00000144  00000+0  19600-3 0  9997",
        "tle_line2": "2 02965  89.2485  23.3193 0047306 191.2504 180.0802 13.53457440872959"
      },
      "geometry": {
        "type": "Point",
        "coordinates": [
          22.796095583218943,
          -33.39398292907441
        ]
      }
    },
    {
      "type": "Feature",
      "properties": {
        "norad_id": 3133,
        "name": "OPS 7034 (TRANSIT 18)",
        "group": "nnss",
        "lat": 12.856128375870302,
        "lon": -86.32467317048275,
        "alt_km": 1089.2910767506319,
        "timestamp": "2025-12-27T17:24:57.673670+00:00",
        "meta_object_name": "OPS 7034 (TRANSIT 18)",
        "meta_object_id": "1968-012A",
        "meta_epoch": "2025-12-27T07:16:51.955968",
        "meta_mean_motion": 13.51569235,
        "meta_eccentricity": 0.0075134,
        "meta_inclination": 90.0284,
        "meta_ra_of_asc_node": 273.6806,
        "meta_arg_of_pericenter": 127.3584,
        "meta_mean_anomaly": 352.9174,
        "meta_ephemeris_type": 0,
        "meta_classification_type": "U",
        "meta_norad_cat_id": 3133,
        "meta_element_set_no": 999,
        "meta_rev_at_epoch": 57115,
        "meta_bstar": 0.00020808,
        "meta_mean_motion_dot": 1.48e-06,
        "meta_mean_motion_ddot": 0,
        "tle_line1": "1 03133U 68012A   25361.30337912  .00000148  00000+0  20808-3 0  9995",
        "tle_line2": "2 03133  90.0284 273.6806 0075134 127.3584 352.9174 13.51569235571157"
      },
      "geometry": {
        "type": "Point",
        "coordinates": [
          -86.32467317048275,
          12.856128375870302
        ]
      }
    },
    {
      "type": "Feature",
      "properties": {
        "norad_id": 4507,
        "name": "NNSS 19 (TRANSIT 19)",
        "group": "nnss",
        "lat": -26.47752454110242,
        "lon": -125.45389132377024,
        "alt_km": 1057.9850964121651,
        "timestamp": "2025-12-27T17:24:57.673682+00:00",
        "meta_object_name": "NNSS 19 (TRANSIT 19)",
        "meta_object_id": "1970-067A",
        "meta_epoch": "2025-12-27T08:39:42.114240",
        "meta_mean_motion": 13.51318099,
        "meta_eccentricity": 0.0170243,
        "meta_inclination": 90.0045,
        "meta_ra_of_asc_node": 234.5437,
        "meta_arg_of_pericenter": 250.5731,
        "meta_mean_anomaly": 107.6955,
        "meta_ephemeris_type": 0,
        "meta_classification_type": "U",
        "meta_norad_cat_id": 4507,
        "meta_element_set_no": 999,
        "meta_rev_at_epoch": 72419,
        "meta_bstar": 0.00012626,
        "meta_mean_motion_dot": 9.8e-07,
        "meta_mean_motion_ddot": 0,
        "tle_line1": "1 04507U 70067A   25361.36090410  .00000098  00000+0  12626-3 0  9992",
        "tle_line2": "2 04507  90.0045 234.5437 0170243 250.5731 107.6955 13.51318099724190"
      },
      "geometry": {
        "type": "Point",
        "coordinates": [
          -125.45389132377024,
          -26.47752454110242
        ]
      }
    },
    {
      "type": "Feature",
      "properties": {
        "norad_id": 6909,
        "name": "NNSS 20 (TRANSIT 20)",
        "group": "nnss",
        "lat": 48.76011727044017,
        "lon": -105.00576079790491,
        "alt_km": 878.8306282385383,
        "timestamp": "2025-12-27T17:24:57.673694+00:00",
        "meta_object_name": "NNSS 20 (TRANSIT 20)",
        "meta_object_id": "1973-081A",
        "meta_epoch": "2025-12-27T06:40:47.864064",
        "meta_mean_motion": 13.71442091,
        "meta_eccentricity": 0.0155984,
        "meta_inclination": 89.8558,
        "meta_ra_of_asc_node": 254.8364,
        "meta_arg_of_pericenter": 35.2081,
        "meta_mean_anomaly": 325.9268,
        "meta_ephemeris_type": 0,
        "meta_classification_type": "U",
        "meta_norad_cat_id": 6909,
        "meta_element_set_no": 999,
        "meta_rev_at_epoch": 80560,
        "meta_bstar": 0.00028554,
        "meta_mean_motion_dot": 2.91e-06,
        "meta_mean_motion_ddot": 0,
        "tle_line1": "1 06909U 73081A   25361.27833176  .00000291  00000+0  28554-3 0  9995",
        "tle_line2": "2 06909  89.8558 254.8364 0155984  35.2081 325.9268 13.71442091805608"
      },
      "geometry": {
        "type": "Point",
        "coordinates": [
          -105.00576079790491,
          48.76011727044017
        ]
      }
    },
    {
      "type": "Feature",
      "properties": {
        "norad_id": 10457,
        "name": "TRANSAT",
        "group": "nnss",
        "lat": -29.301031132817517,
        "lon": -101.7359783014054,
        "alt_km": 1072.6820396961257,
        "timestamp": "2025-12-27T17:24:57.673704+00:00",
        "meta_object_name": "TRANSAT",
        "meta_object_id": "1977-106A",
        "meta_epoch": "2025-12-27T04:12:20.051712",
        "meta_mean_motion": 13.48945884,
        "meta_eccentricity": 0.00266749,
        "meta_inclination": 89.6473,
        "meta_ra_of_asc_node": 78.0855,
        "meta_arg_of_pericenter": 148.7401,
        "meta_mean_anomaly": 268.7469,
        "meta_ephemeris_type": 0,
        "meta_classification_type": "U",
        "meta_norad_cat_id": 10457,
        "meta_element_set_no": 999,
        "meta_rev_at_epoch": 36938,
        "meta_bstar": 0.00012462096,
        "meta_mean_motion_dot": 8.9e-07,
        "meta_mean_motion_ddot": 0,
        "tle_line1": "1 10457U 77106A   25361.17523208  .00000089  00000+0  12462-3 0  9997",
        "tle_line2": "2 10457  89.6473  78.0855 0026674 148.7401 268.7469 13.48945884369384"
      },
      "geometry": {
        "type": "Point",
        "coordinates": [
          -101.7359783014054,
          -29.301031132817517
        ]
      }
    },
    {
      "type": "Feature",
      "properties": {
        "norad_id": 12458,
        "name": "NOVA 1",
        "group": "nnss",
        "lat": 12.003531542819346,
        "lon": -88.85815185820924,
        "alt_km": 1175.6637240070477,
        "timestamp": "2025-12-27T17:24:57.673716+00:00",
        "meta_object_name": "NOVA 1",
        "meta_object_id": "1981-044A",
        "meta_epoch": "2025-12-27T07:49:23.642976",
        "meta_mean_motion": 13.23280201,
        "meta_eccentricity": 0.0015642,
        "meta_inclination": 89.8525,
        "meta_ra_of_asc_node": 91.1789,
        "meta_arg_of_pericenter": 68.0967,
        "meta_mean_anomaly": 356.6259,
        "meta_ephemeris_type": 0,
        "meta_classification_type": "U",
        "meta_norad_cat_id": 12458,
        "meta_element_set_no": 999,
        "meta_rev_at_epoch": 15379,
        "meta_bstar": 0.00012527,
        "meta_mean_motion_dot": 6.2e-07,
        "meta_mean_motion_ddot": 0,
        "tle_line1": "1 12458U 81044A   25361.32596809  .00000062  00000+0  12527-3 0  9993",
        "tle_line2": "2 12458  89.8525  91.1789 0015642  68.0967 356.6259 13.23280201153791"
      },
      "geometry": {
        "type": "Point",
        "coordinates": [
          -88.85815185820924,
          12.003531542819346
        ]
      }
    }
  ]
}